0355P         2024 04  1.3276  1.706334  0.508077  336.2882   51.4294   11.0461  20241122  15.5  2.0  355P/LINEAR-NEAT                                         MPEC 2023-CD7
0356P         2026 06 12.1854  2.674763  0.356004  226.1836  160.7996    9.6408  20241122  14.0  4.0  356P/WISE                                                MPEC 2022-F14
0357P         2027 10 29.3817  2.512316  0.436126    1.4802   44.5763    6.3137  20241122  15.5  4.0  357P/Hill                                                MPC114609
0358P         2023 11  9.8410  2.393087  0.239550  299.4226   85.6668   11.0667  20241122  18.0  4.0  358P/PANSTARRS                                           MPEC 2024-EF7
0359P         2027 08 24.3168  3.140871  0.323338  200.3000  149.7586   10.2624  20241122  13.5  4.0  359P/LONEOS                                              MPC110086
0360P         2024 10  3.7707  1.851683  0.499158  354.2865    2.1774   24.1093  20241122  19.5  6.0  360P/WISE                                                MPEC 2024-VJ2
0361P         2029 06 21.1030  2.764464  0.439614  219.0948  203.2450   13.9002  20241122  12.0  4.0  361P/Spacewatch                                          MPEC 2023-CD7
0363P         2024 11 13.1977  1.720856  0.518560  340.8759  146.6324    5.3900  20241122  17.5  4.0  363P/Lemmon                                              MPC114609
0364P         2023 05 14.0082  0.810727  0.720039  212.4942   46.0505   12.0122  20241122  17.0  2.0  364P/PANSTARRS                                           MPEC 2024-M41
0365P         2023 10  9.4246  1.320873  0.581516   67.4176   86.6571    9.8501  20241122  17.0  4.0  365P/PANSTARRS                                           MPC111775
0366P         2025 01 30.9164  2.279976  0.348479  153.0041   70.7227    8.8570  20241122  15.0  4.0  366P/Spacewatch                                          MPC114610
0367P         2025 01 11.5812  2.527964  0.279997  172.6983   58.6614    8.4596  20241122  17.5  2.0  367P/Catalina                                            MPC112395
0368P         2018 09 15.8343  2.069480  0.626029  118.9816  257.8550   15.4827  20241122  14.0  4.0  368P/NEAT                                                MPC114610
0369P         2027 12 18.7176  1.944512  0.555961   13.2159   47.2936   10.3215  20241122  15.0  4.0  369P/Hill                                                MPC114610
0370P         2018 06 12.7325  2.476232  0.615411  356.7666   55.0825   19.4225  20241122  13.0  4.0  370P/NEAT                                                MPEC 2021-F20
0371P         2027 04 25.7823  2.187324  0.476769  308.5723   67.2828   17.3853  20241122  16.0  4.0  371P/LINEAR-Skiff                                        MPC114610
0372P         2028 05 24.1367  3.828203  0.151500  326.0115   27.5519    9.5059  20241122  13.5  4.0  372P/McNaught                                            MPEC 2020-K19
0373P         2026 09  4.8945  2.302448  0.393755  221.0940  231.9400   13.7702  20241122  14.5  4.0  373P/Rinner                                              MPEC 2021-F20
0374P         2030 02 13.5304  2.665621  0.463768   51.5474    7.8865   10.7627  20241122  14.0  4.0  374P/Larson                                              MPC114610
0375P         2018 12 22.8897  1.885346  0.660056  119.4136  359.8633   17.3699  20241122  16.0  4.0  375P/Hill                                                MPEC 2021-F20
0376P         2019 09 14.0203  2.799181  0.513734  285.3910  312.8512    1.1662  20241122  12.5  4.0  376P/LONEOS                                              MPEC 2024-RQ6
0377P         2020 07  9.2980  5.014034  0.251192  354.8683  225.9941    9.0267  20241122   9.5  4.0  377P/Scotti                                              MPEC 2022-N37
0378P         2020 10  8.7797  3.369670  0.464226  193.3563   93.7978   19.1550  20241122  12.0  4.0  378P/McNaught                                            MPEC 2024-VJ2
0379P         2026 02 22.5513  2.265090  0.350179  184.5560   30.4748   12.4369  20241122  15.0  4.0  379P/Spacewatch                                          MPC115889
0380P         2028 08  8.7080  2.947353  0.335400   87.8675  127.8619    8.0248  20241122  12.5  4.0  380P/PANSTARRS                                           MPEC 2023-C45
0381P         2019 09 25.9126  2.280161  0.680855  173.8543  173.3062   28.3499  20241122  17.5  2.0  381P/LINEAR-Spacewatch                                   MPEC 2021-J28
0382P         2021 11  8.5942  4.326102  0.268270  162.1793  171.0942    8.2592  20241122   8.0  4.0  382P/Larson                                              MPEC 2024-MB8
0383P         2026 07  2.5285  1.424277  0.598617  133.7431  207.8539   12.3192  20241122  18.0  4.0  383P/Christensen                                         MPEC 2022-OB6
0384P         2024 09 19.1422  1.112072  0.616338   37.7142  354.1963    7.2831  20241122  19.5  4.0  384P/Kowalski                                            MPEC 2024-VB7
0385P         2028 08  4.4148  2.564544  0.402040   44.4368  357.0515   16.8248  20241122  13.0  4.0  385P/Hill                                                MPEC 2021-F20
0386P         2028 10 13.8133  2.359732  0.417310  353.0866  134.9157   15.2441  20241122  14.5  4.0  386P/PANSTARRS                                           MPEC 2021-L04
0387P         2019 09  8.6380  1.261186  0.737100  162.8426  259.2388    8.9380  20241122  15.0  4.0  387P/Boattini                                            MPEC 2021-J28
0388P         2019 07 26.2804  1.994649  0.619382   42.3414   37.0231   23.8852  20241122  13.0  4.0  388P/Gibbs                                               MPEC 2021-S45
0389P         2019 12 31.1496  1.658952  0.705413  249.3586  218.8703  160.0834  20241122  16.0  4.0  389P/Siding Spring                                       MPEC 2022-OB6
0390P         2020 03 22.7531  1.704352  0.706977  232.5233  152.2208   18.5300  20241122  12.0  4.0  390P/Gibbs                                               MPEC 2024-EF7
0391P         2028 05 12.2783  4.133957  0.118540  187.0831  124.7804   21.2582  20241122   8.0  4.0  391P/Kowalski                                            MPEC 2021-F20
0392P         2020 04  2.5400  1.941252  0.683908   71.9239   24.8282    4.9301  20241122  14.5  4.0  392P/LINEAR                                              MPEC 2021-J28
0393P         2019 10 31.5056  4.225438  0.119483  329.2192   36.3969   16.7859  20241122  11.0  4.0  393P/Spacewatch-Hill                                     MPEC 2023-T65
0394P         2028 11 30.3438  2.734694  0.368076   54.4136   98.1164    8.5288  20241122  16.0  2.4  394P/PANSTARRS                                           MPEC 2020-KB7
0395P         2022 02 21.0595  4.227764  0.412808  100.4687  221.0071    3.5752  20241122  10.0  4.0  395P/Catalina-NEAT                                       MPEC 2024-PC5
0396P         2019 08 28.4088  3.965745  0.416731    8.3000  136.6146    5.4411  20241122  12.0  4.0  396P                                                     MPEC 2020-KB7
0397P         2027 12 20.8266  2.280512  0.404830   14.5795    8.2186   10.9225  20241122  12.0  4.0  397P/Lemmon                                              MPEC 2022-OB6
0398P         2026 07  7.9011  1.300871  0.583722  127.5296  320.1388   11.0254  20241122  15.5  4.0  398P/Boattini                                            MPEC 2021-L04
0399P         2021 05 23.5152  2.096108  0.447417  214.4231  207.1257   13.3192  20241122  14.0  4.0  399P/PANSTARRS                                           MPEC 2023-XP6
0400P         2027 11  2.7259  2.102575  0.409707  238.9223  176.3635   10.9259  20241122  15.5  2.8  400P/PANSTARRS                                           MPEC 2024-TD8
0401P         2019 12  4.3565  2.435344  0.578480  309.3908  359.9192   12.8007  20241122  12.5  4.0  401P/McNaught                                            MPEC 2022-K19
0402P         2021 12 15.7603  3.940639  0.440041  326.9232  123.0556   30.8300  20241122   9.0  4.0  402P/LINEAR                                              MPEC 2024-LE0
0403P         2020 09 17.6577  2.692257  0.504323  163.9358  277.5654   12.3309  20241122  12.0  4.0  403P/Catalina                                            MPEC 2021-J28
0404P         2023 11  2.4955  4.132540  0.124794  169.1844  260.0421    9.8043  20241122  10.0  4.0  404P/Bressi                                              MPEC 2024-VJ2
0405P         2027 10 29.5603  1.117099  0.690065    3.2994  112.1917    9.3778  20241122  17.5  4.0  405P/Lemmon                                              MPEC 2021-L04
0406P         2027 06 24.6629  1.641665  0.541287   11.5579  352.4011    1.2103  20241122  17.0  4.0  406P/Gibbs                                               MPEC 2021-F20
0407P         2026 07 25.8171  2.176379  0.376260   93.3089   80.2396    4.8765  20241122  14.0  4.0  407P/PANSTARRS-Fuls                                      MPEC 2022-YN2
0408P         2022 10  5.9570  3.470264  0.268593  226.6410  189.4479   19.3547  20241122  11.0  4.0  408P/Novichonok-Gerke                                    MPEC 2024-N80
0409P         2021 01 28.3155  1.749356  0.710042   15.0451  143.6431   17.1418  20241122  14.0  4.0  409P/LONEOS-Hill                                         MPEC 2022-ED3
0410P         2021 06 24.5369  3.247310  0.511744  313.2128  139.9502    9.3883  20241122  12.5  4.0  410P/NEAT-LINEAR                                         MPEC 2022-M21
0411P         2021 01 25.2234  2.431208  0.581637   46.5493   77.6542   12.3901  20241122  13.5  4.0  411P/Christensen                                         MPEC 2021-J28
0412P         2026 05 30.7238  1.620801  0.478995  155.8774    0.8454    8.9305  20241122  17.0  4.0  412P/WISE                                                MPEC 2021-F20
0413P         2021 07 16.7349  2.172208  0.418389  186.5255   39.2345   15.9640  20241122  14.0  4.0  413P/Larson                                              MPEC 2022-OB6
